[{"OBJECT_NAME":"STARLINK-32040","OBJECT_ID":"2024-117U","EPOCH":"2026-03-09T04:20:56.234688","MEAN_MOTION":15.30194485,"ECCENTRICITY":0.00013062,"INCLINATION":53.161,"RA_OF_ASC_NODE":39.1294,"ARG_OF_PERICENTER":89.9247,"MEAN_ANOMALY":270.1903,"EPHEMERIS_TYPE":0,"CLASSIFICATION_TYPE":"U","NORAD_CAT_ID":60109,"ELEMENT_SET_NO":999,"REV_AT_EPOCH":9681,"BSTAR":-1.3599428e-5,"MEAN_MOTION_DOT":-7.62e-6,"MEAN_MOTION_DDOT":0},{"OBJECT_NAME":"YAOGAN-43 01G","OBJECT_ID":"2024-148G","EPOCH":"2026-03-09T10:38:37.087584","MEAN_MOTION":15.28332833,"ECCENTRICITY":0.00073829,"INCLINATION":35.0006,"RA_OF_ASC_NODE":62.0013,"ARG_OF_PERICENTER":306.3543,"MEAN_ANOMALY":53.6492,"EPHEMERIS_TYPE":0,"CLASSIFICATION_TYPE":"U","NORAD_CAT_ID":60464,"ELEMENT_SET_NO":999,"REV_AT_EPOCH":8700,"BSTAR":0.00035872736,"MEAN_MOTION_DOT":0.00010133,"MEAN_MOTION_DDOT":0}]
