STARLINK-32040          
1 60109U 24117U   26068.18120642 -.00000762  00000+0 -13599-4 0  9994
2 60109  53.1610  39.1294 0001306  89.9247 270.1903 15.30194485 96817
YAOGAN-43 01G           
1 60464U 24148G   26068.44348481  .00010133  00000+0  35873-3 0  9993
2 60464  35.0006  62.0013 0007382 306.3543  53.6492 15.28332833 87004
